{
  "type": "FeatureCollection",
  "features": [
    {
      "type": "Feature",
      "properties": {
        "norad_id": 56759,
        "name": "NVS-01 (IRNSS-1J)",
        "group": "gnss",
        "lat": -2.53509192999431,
        "lon": 172.76916898868802,
        "alt_km": 35789.78632689131,
        "timestamp": "2025-12-23T20:42:37.318669+00:00",
        "meta_object_name": "NVS-01 (IRNSS-1J)",
        "meta_object_id": "2023-076A",
        "meta_epoch": "2025-12-22T22:20:24.211392",
        "meta_mean_motion": 1.00272346,
        "meta_eccentricity": 0.00088017,
        "meta_inclination": 2.5947,
        "meta_ra_of_asc_node": 251.2401,
        "meta_arg_of_pericenter": 16.7156,
        "meta_mean_anomaly": 288.4369,
        "meta_ephemeris_type": 0,
        "meta_classification_type": "U",
        "meta_norad_cat_id": 56759,
        "meta_element_set_no": 999,
        "meta_rev_at_epoch": 934,
        "meta_bstar": 0,
        "meta_mean_motion_dot": -3.13e-06,
        "meta_mean_motion_ddot": 0,
        "tle_line1": "1 56759U 23076A   25356.93083578 -.00000313  00000+0  00000+0 0  9990",
        "tle_line2": "2 56759   2.5947 251.2401 0008801  16.7156 288.4369  1.00272346  9340"
      },
      "geometry": {
        "type": "Point",
        "coordinates": [
          172.76916898868802,
          -2.53509192999431
        ]
      }
    },
    {
      "type": "Feature",
      "properties": {
        "norad_id": 57517,
        "name": "COSMOS 2569 (703K)",
        "group": "gnss",
        "lat": 64.85052951456152,
        "lon": 158.05793716153278,
        "alt_km": 19148.647135161285,
        "timestamp": "2025-12-23T20:42:37.318681+00:00",
        "meta_object_name": "COSMOS 2569 (703K)",
        "meta_object_id": "2023-114A",
        "meta_epoch": "2025-12-23T06:46:12.296064",
        "meta_mean_motion": 2.13104025,
        "meta_eccentricity": 0.00108924,
        "meta_inclination": 65.1995,
        "meta_ra_of_asc_node": 78.5573,
        "meta_arg_of_pericenter": 287.0521,
        "meta_mean_anomaly": 72.876,
        "meta_ephemeris_type": 0,
        "meta_classification_type": "U",
        "meta_norad_cat_id": 57517,
        "meta_element_set_no": 999,
        "meta_rev_at_epoch": 1851,
        "meta_bstar": 0,
        "meta_mean_motion_dot": 0,
        "meta_mean_motion_ddot": 0,
        "tle_line1": "1 57517U 23114A   25357.28208676  .00000000  00000+0  00000+0 0  9995",
        "tle_line2": "2 57517  65.1995  78.5573 0010892 287.0521  72.8760  2.13104025 18515"
      },
      "geometry": {
        "type": "Point",
        "coordinates": [
          158.05793716153278,
          64.85052951456152
        ]
      }
    },
    {
      "type": "Feature",
      "properties": {
        "norad_id": 58654,
        "name": "BEIDOU-3 M28 (C50)",
        "group": "gnss",
        "lat": 54.427189665911015,
        "lon": 175.11643637423438,
        "alt_km": 21529.734228084497,
        "timestamp": "2025-12-23T20:42:37.318692+00:00",
        "meta_object_name": "BEIDOU-3 M28 (C50)",
        "meta_object_id": "2023-207A",
        "meta_epoch": "2025-12-23T04:15:12.326400",
        "meta_mean_motion": 1.86229739,
        "meta_eccentricity": 0.00028337,
        "meta_inclination": 55.5933,
        "meta_ra_of_asc_node": 68.248,
        "meta_arg_of_pericenter": 274.486,
        "meta_mean_anomaly": 85.5342,
        "meta_ephemeris_type": 0,
        "meta_classification_type": "U",
        "meta_norad_cat_id": 58654,
        "meta_element_set_no": 999,
        "meta_rev_at_epoch": 1356,
        "meta_bstar": 0,
        "meta_mean_motion_dot": -2.8e-07,
        "meta_mean_motion_ddot": 0,
        "tle_line1": "1 58654U 23207A   25357.17722600 -.00000028  00000+0  00000+0 0  9998",
        "tle_line2": "2 58654  55.5933  68.2480 0002833 274.4860  85.5342  1.86229739 13564"
      },
      "geometry": {
        "type": "Point",
        "coordinates": [
          175.11643637423438,
          54.427189665911015
        ]
      }
    },
    {
      "type": "Feature",
      "properties": {
        "norad_id": 58655,
        "name": "BEIDOU-3 M26 (C48)",
        "group": "gnss",
        "lat": -42.80806525741478,
        "lon": -72.43065705861699,
        "alt_km": 21522.47223990533,
        "timestamp": "2025-12-23T20:42:37.318703+00:00",
        "meta_object_name": "BEIDOU-3 M26 (C48)",
        "meta_object_id": "2023-207B",
        "meta_epoch": "2025-12-22T10:30:28.265760",
        "meta_mean_motion": 1.8623125,
        "meta_eccentricity": 0.00041674,
        "meta_inclination": 55.5947,
        "meta_ra_of_asc_node": 68.2592,
        "meta_arg_of_pericenter": 260.2185,
        "meta_mean_anomaly": 99.7849,
        "meta_ephemeris_type": 0,
        "meta_classification_type": "U",
        "meta_norad_cat_id": 58655,
        "meta_element_set_no": 999,
        "meta_rev_at_epoch": 1353,
        "meta_bstar": 0,
        "meta_mean_motion_dot": -3e-07,
        "meta_mean_motion_ddot": 0,
        "tle_line1": "1 58655U 23207B   25356.43782715 -.00000030  00000+0  00000+0 0  9993",
        "tle_line2": "2 58655  55.5947  68.2592 0004167 260.2185  99.7849  1.86231250 13536"
      },
      "geometry": {
        "type": "Point",
        "coordinates": [
          -72.43065705861699,
          -42.80806525741478
        ]
      }
    },
    {
      "type": "Feature",
      "properties": {
        "norad_id": 59598,
        "name": "GSAT0225 (GALILEO 29)",
        "group": "gnss",
        "lat": -54.689953718662906,
        "lon": 6.905095850063564,
        "alt_km": 23226.36520650144,
        "timestamp": "2025-12-23T20:42:37.318714+00:00",
        "meta_object_name": "GSAT0225 (GALILEO 29)",
        "meta_object_id": "2024-079A",
        "meta_epoch": "2025-12-22T20:21:50.564160",
        "meta_mean_motion": 1.70474954,
        "meta_eccentricity": 0.0002219,
        "meta_inclination": 55.0069,
        "meta_ra_of_asc_node": 106.0132,
        "meta_arg_of_pericenter": 188.6953,
        "meta_mean_anomaly": 173.4251,
        "meta_ephemeris_type": 0,
        "meta_classification_type": "U",
        "meta_norad_cat_id": 59598,
        "meta_element_set_no": 999,
        "meta_rev_at_epoch": 1031,
        "meta_bstar": 0,
        "meta_mean_motion_dot": 8e-08,
        "meta_mean_motion_ddot": 0,
        "tle_line1": "1 59598U 24079A   25356.84850190  .00000008  00000+0  00000+0 0  9990",
        "tle_line2": "2 59598  55.0069 106.0132 0002219 188.6953 173.4251  1.70474954 10319"
      },
      "geometry": {
        "type": "Point",
        "coordinates": [
          6.905095850063564,
          -54.689953718662906
        ]
      }
    },
    {
      "type": "Feature",
      "properties": {
        "norad_id": 59600,
        "name": "GSAT0227 (GALILEO 30)",
        "group": "gnss",
        "lat": 22.441039492938263,
        "lon": -90.81030379014379,
        "alt_km": 23212.49524295849,
        "timestamp": "2025-12-23T20:42:37.318725+00:00",
        "meta_object_name": "GSAT0227 (GALILEO 30)",
        "meta_object_id": "2024-079C",
        "meta_epoch": "2025-12-21T20:31:35.455872",
        "meta_mean_motion": 1.70474868,
        "meta_eccentricity": 0.00028355,
        "meta_inclination": 55.0019,
        "meta_ra_of_asc_node": 106.0394,
        "meta_arg_of_pericenter": 117.3615,
        "meta_mean_anomaly": 242.6419,
        "meta_ephemeris_type": 0,
        "meta_classification_type": "U",
        "meta_norad_cat_id": 59600,
        "meta_element_set_no": 999,
        "meta_rev_at_epoch": 1034,
        "meta_bstar": 0,
        "meta_mean_motion_dot": 4e-08,
        "meta_mean_motion_ddot": 0,
        "tle_line1": "1 59600U 24079C   25355.85527148  .00000004  00000+0  00000+0 0  9994",
        "tle_line2": "2 59600  55.0019 106.0394 0002835 117.3615 242.6419  1.70474868 10348"
      },
      "geometry": {
        "type": "Point",
        "coordinates": [
          -90.81030379014379,
          22.441039492938263
        ]
      }
    },
    {
      "type": "Feature",
      "properties": {
        "norad_id": 61182,
        "name": "GSAT0232 (GALILEO 32)",
        "group": "gnss",
        "lat": -11.004604317986136,
        "lon": -141.61825653344778,
        "alt_km": 23228.323207964262,
        "timestamp": "2025-12-23T20:42:37.318737+00:00",
        "meta_object_name": "GSAT0232 (GALILEO 32)",
        "meta_object_id": "2024-167A",
        "meta_epoch": "2025-12-22T11:14:58.318656",
        "meta_mean_motion": 1.70473576,
        "meta_eccentricity": 0.00018839,
        "meta_inclination": 55.2381,
        "meta_ra_of_asc_node": 226.1639,
        "meta_arg_of_pericenter": 204.0949,
        "meta_mean_anomaly": 6.8996,
        "meta_ephemeris_type": 0,
        "meta_classification_type": "U",
        "meta_norad_cat_id": 61182,
        "meta_element_set_no": 999,
        "meta_rev_at_epoch": 786,
        "meta_bstar": 0,
        "meta_mean_motion_dot": 7.4e-07,
        "meta_mean_motion_ddot": 0,
        "tle_line1": "1 61182U 24167A   25356.46873054  .00000074  00000+0  00000+0 0  9995",
        "tle_line2": "2 61182  55.2381 226.1639 0001883 204.0949   6.8996  1.70473576  7860"
      },
      "geometry": {
        "type": "Point",
        "coordinates": [
          -141.61825653344778,
          -11.004604317986136
        ]
      }
    }
  ]
}